[ {"CCSDS_OMM_VERS": "2.0", "COMMENT": "GENERATED VIA SPACE-TRACK.ORG API", "CREATION_DATE": "2021-12-06T02:57:56", "ORIGINATOR": "18 SPCS", "OBJECT_NAME": "CUSAT 2/FALCON 9", "OBJECT_ID": "2013-055G", "CENTER_NAME": "EARTH", "REF_FRAME": "TEME", "TIME_SYSTEM": "UTC", "MEAN_ELEMENT_THEORY": "SGP4", "EPOCH": "2021-12-05T21:35:29.558688", "MEAN_MOTION": "14.56016364", "ECCENTRICITY": "0.05557000", "INCLINATION": "80.9651", "RA_OF_ASC_NODE": "46.8900", "ARG_OF_PERICENTER": "348.6683", "MEAN_ANOMALY": "10.2397", "EPHEMERIS_TYPE": "0", "CLASSIFICATION_TYPE": "U", "NORAD_CAT_ID": "39271", "ELEMENT_SET_NO": "999", "REV_AT_EPOCH": "42855", "BSTAR": "0.00018498000000", "MEAN_MOTION_DOT": "0.00008084", "MEAN_MOTION_DDOT": "0.0000000000000", "SEMIMAJOR_AXIS": "7084.203", "PERIOD": "98.900", "APOAPSIS": "1099.737", "PERIAPSIS": "312.399", "OBJECT_TYPE": "PAYLOAD", "RCS_SIZE": "LARGE", "COUNTRY_CODE": "US", "LAUNCH_DATE": "2013-09-29", "SITE": "AFWTR", "DECAY_DATE": null, "FILE": "3233515", "GP_ID": "191163695", "TLE_LINE0": "0 CUSAT 2/FALCON 9", "TLE_LINE1": "1 39271U 13055G   21339.89964767  .00008084  00000-0  18498-3 0  9993", "TLE_LINE2": "2 39271  80.9651  46.8900 0555700 348.6683  10.2397 14.56016364428552"}, {"CCSDS_OMM_VERS": "2.0", "COMMENT": "GENERATED VIA SPACE-TRACK.ORG API", "CREATION_DATE": "2021-12-06T02:57:56", "ORIGINATOR": "18 SPCS", "OBJECT_NAME": "SWARM B", "OBJECT_ID": "2013-067A", "CENTER_NAME": "EARTH", "REF_FRAME": "TEME", "TIME_SYSTEM": "UTC", "MEAN_ELEMENT_THEORY": "SGP4", "EPOCH": "2021-12-05T22:07:53.124096", "MEAN_MOTION": "15.22266572", "ECCENTRICITY": "0.00023500", "INCLINATION": "87.7500", "RA_OF_ASC_NODE": "119.3388", "ARG_OF_PERICENTER": "62.9324", "MEAN_ANOMALY": "297.2161", "EPHEMERIS_TYPE": "0", "CLASSIFICATION_TYPE": "U", "NORAD_CAT_ID": "39451", "ELEMENT_SET_NO": "999", "REV_AT_EPOCH": "43150", "BSTAR": "0.00003593800000", "MEAN_MOTION_DOT": "0.00000862", "MEAN_MOTION_DDOT": "0.0000000000000", "SEMIMAJOR_AXIS": "6877.143", "PERIOD": "94.596", "APOAPSIS": "500.624", "PERIAPSIS": "497.392", "OBJECT_TYPE": "PAYLOAD", "RCS_SIZE": "LARGE", "COUNTRY_CODE": "ESA", "LAUNCH_DATE": "2013-11-22", "SITE": "PKMTR", "DECAY_DATE": null, "FILE": "3233515", "GP_ID": "191164460", "TLE_LINE0": "0 SWARM B", "TLE_LINE1": "1 39451U 13067A   21339.92214264  .00000862  00000-0  35938-4 0  9995", "TLE_LINE2": "2 39451  87.7500 119.3388 0002350  62.9324 297.2161 15.22266572431509"}, {"CCSDS_OMM_VERS": "2.0", "COMMENT": "GENERATED VIA SPACE-TRACK.ORG API", "CREATION_DATE": "2021-12-06T02:57:56", "ORIGINATOR": "18 SPCS", "OBJECT_NAME": "ARIANE 5 R/B", "OBJECT_ID": "2014-006C", "CENTER_NAME": "EARTH", "REF_FRAME": "TEME", "TIME_SYSTEM": "UTC", "MEAN_ELEMENT_THEORY": "SGP4", "EPOCH": "2021-12-05T13:35:41.160768", "MEAN_MOTION": "2.37345982", "ECCENTRICITY": "0.71961400", "INCLINATION": "5.9979", "RA_OF_ASC_NODE": "137.9945", "ARG_OF_PERICENTER": "74.2104", "MEAN_ANOMALY": "349.1823", "EPHEMERIS_TYPE": "0", "CLASSIFICATION_TYPE": "U", "NORAD_CAT_ID": "39510", "ELEMENT_SET_NO": "999", "REV_AT_EPOCH": "6651", "BSTAR": "0.00055772000000", "MEAN_MOTION_DOT": "0.00001289", "MEAN_MOTION_DDOT": "0.0000000000000", "SEMIMAJOR_AXIS": "23739.993", "PERIOD": "606.709", "APOAPSIS": "34445.489", "PERIAPSIS": "278.227", "OBJECT_TYPE": "ROCKET BODY", "RCS_SIZE": "LARGE", "COUNTRY_CODE": "FR", "LAUNCH_DATE": "2014-02-06", "SITE": "FRGUI", "DECAY_DATE": null, "FILE": "3233515", "GP_ID": "191164965", "TLE_LINE0": "0 ARIANE 5 R/B", "TLE_LINE1": "1 39510U 14006C   21339.56644862  .00001289  00000-0  55772-3 0  9997", "TLE_LINE2": "2 39510   5.9979 137.9945 7196140  74.2104 349.1823  2.37345982 66514"}, {"CCSDS_OMM_VERS": "2.0", "COMMENT": "GENERATED VIA SPACE-TRACK.ORG API", "CREATION_DATE": "2021-12-06T06:36:11", "ORIGINATOR": "18 SPCS", "OBJECT_NAME": "SL-4 R/B", "OBJECT_ID": "2014-021B", "CENTER_NAME": "EARTH", "REF_FRAME": "TEME", "TIME_SYSTEM": "UTC", "MEAN_ELEMENT_THEORY": "SGP4", "EPOCH": "2021-12-05T22:13:50.974752", "MEAN_MOTION": "15.07434683", "ECCENTRICITY": "0.01687390", "INCLINATION": "51.6146", "RA_OF_ASC_NODE": "136.2242", "ARG_OF_PERICENTER": "6.2550", "MEAN_ANOMALY": "354.0473", "EPHEMERIS_TYPE": "0", "CLASSIFICATION_TYPE": "U", "NORAD_CAT_ID": "39679", "ELEMENT_SET_NO": "999", "REV_AT_EPOCH": "42023", "BSTAR": "0.00004004100000", "MEAN_MOTION_DOT": "0.00000467", "MEAN_MOTION_DDOT": "0.0000000000000", "SEMIMAJOR_AXIS": "6922.179", "PERIOD": "95.527", "APOAPSIS": "660.848", "PERIAPSIS": "427.240", "OBJECT_TYPE": "ROCKET BODY", "RCS_SIZE": "LARGE", "COUNTRY_CODE": "CIS", "LAUNCH_DATE": "2014-04-16", "SITE": "TTMTR", "DECAY_DATE": null, "FILE": "3233560", "GP_ID": "191174257", "TLE_LINE0": "0 SL-4 R/B", "TLE_LINE1": "1 39679U 14021B   21339.92628443  .00000467  00000-0  40041-4 0  9998", "TLE_LINE2": "2 39679  51.6146 136.2242 0168739   6.2550 354.0473 15.07434683420239"}, {"CCSDS_OMM_VERS": "2.0", "COMMENT": "GENERATED VIA SPACE-TRACK.ORG API", "CREATION_DATE": "2021-12-06T06:46:12", "ORIGINATOR": "18 SPCS", "OBJECT_NAME": "H-2A R/B", "OBJECT_ID": "2014-029F", "CENTER_NAME": "EARTH", "REF_FRAME": "TEME", "TIME_SYSTEM": "UTC", "MEAN_ELEMENT_THEORY": "SGP4", "EPOCH": "2021-12-06T03:45:27.783648", "MEAN_MOTION": "14.94104437", "ECCENTRICITY": "0.00155310", "INCLINATION": "98.1514", "RA_OF_ASC_NODE": "228.5583", "ARG_OF_PERICENTER": "281.0160", "MEAN_ANOMALY": "78.9312", "EPHEMERIS_TYPE": "0", "CLASSIFICATION_TYPE": "U", "NORAD_CAT_ID": "39771", "ELEMENT_SET_NO": "999", "REV_AT_EPOCH": "41078", "BSTAR": "0.00004641000000", "MEAN_MOTION_DOT": "0.00000434", "MEAN_MOTION_DDOT": "0.0000000000000", "SEMIMAJOR_AXIS": "6963.291", "PERIOD": "96.379", "APOAPSIS": "595.971", "PERIAPSIS": "574.341", "OBJECT_TYPE": "ROCKET BODY", "RCS_SIZE": "LARGE", "COUNTRY_CODE": "JPN", "LAUNCH_DATE": "2014-05-24", "SITE": "TNSTA", "DECAY_DATE": null, "FILE": "3233610", "GP_ID": "191174832", "TLE_LINE0": "0 H-2A R/B", "TLE_LINE1": "1 39771U 14029F   21340.15657157  .00000434  00000-0  46410-4 0  9990", "TLE_LINE2": "2 39771  98.1514 228.5583 0015531 281.0160  78.9312 14.94104437410780"}, {"CCSDS_OMM_VERS": "2.0", "COMMENT": "GENERATED VIA SPACE-TRACK.ORG API", "CREATION_DATE": "2021-12-06T06:36:11", "ORIGINATOR": "18 SPCS", "OBJECT_NAME": "ARIANE 5 R/B", "OBJECT_ID": "2015-054C", "CENTER_NAME": "EARTH", "REF_FRAME": "TEME", "TIME_SYSTEM": "UTC", "MEAN_ELEMENT_THEORY": "SGP4", "EPOCH": "2021-12-06T01:36:42.615360", "MEAN_MOTION": "2.53460955", "ECCENTRICITY": "0.70974880", "INCLINATION": "6.2311", "RA_OF_ASC_NODE": "210.9091", "ARG_OF_PERICENTER": "16.5888", "MEAN_ANOMALY": "358.1545", "EPHEMERIS_TYPE": "0", "CLASSIFICATION_TYPE": "U", "NORAD_CAT_ID": "40942", "ELEMENT_SET_NO": "999", "REV_AT_EPOCH": "5452", "BSTAR": "0.00113310000000", "MEAN_MOTION_DOT": "0.00009968", "MEAN_MOTION_DDOT": "0.0000000000000", "SEMIMAJOR_AXIS": "22722.763", "PERIOD": "568.135", "APOAPSIS": "32472.081", "PERIAPSIS": "217.174", "OBJECT_TYPE": "ROCKET BODY", "RCS_SIZE": "LARGE", "COUNTRY_CODE": "FR", "LAUNCH_DATE": "2015-09-30", "SITE": "FRGUI", "DECAY_DATE": null, "FILE": "3233559", "GP_ID": "191174250", "TLE_LINE0": "0 ARIANE 5 R/B", "TLE_LINE1": "1 40942U 15054C   21340.06715990  .00009968  00000-0  11331-2 0  9994", "TLE_LINE2": "2 40942   6.2311 210.9091 7097488  16.5888 358.1545  2.53460955 54521"}, {"CCSDS_OMM_VERS": "2.0", "COMMENT": "GENERATED VIA SPACE-TRACK.ORG API", "CREATION_DATE": "2021-12-06T02:57:56", "ORIGINATOR": "18 SPCS", "OBJECT_NAME": "ARIANE 5 DEB (SYLDA)", "OBJECT_ID": "2015-065D", "CENTER_NAME": "EARTH", "REF_FRAME": "TEME", "TIME_SYSTEM": "UTC", "MEAN_ELEMENT_THEORY": "SGP4", "EPOCH": "2021-12-05T17:52:02.138880", "MEAN_MOTION": "4.02873044", "ECCENTRICITY": "0.60657390", "INCLINATION": "4.2372", "RA_OF_ASC_NODE": "270.7858", "ARG_OF_PERICENTER": "18.9934", "MEAN_ANOMALY": "356.2018", "EPHEMERIS_TYPE": "0", "CLASSIFICATION_TYPE": "U", "NORAD_CAT_ID": "41031", "ELEMENT_SET_NO": "999", "REV_AT_EPOCH": "6918", "BSTAR": "0.00614470000000", "MEAN_MOTION_DOT": "0.00283594", "MEAN_MOTION_DDOT": "0.0000002304200", "SEMIMAJOR_AXIS": "16683.597", "PERIOD": "357.433", "APOAPSIS": "20425.297", "PERIAPSIS": "185.628", "OBJECT_TYPE": "DEBRIS", "RCS_SIZE": "LARGE", "COUNTRY_CODE": "FR", "LAUNCH_DATE": "2015-11-10", "SITE": "FRGUI", "DECAY_DATE": null, "FILE": "3233515", "GP_ID": "191165357", "TLE_LINE0": "0 ARIANE 5 DEB (SYLDA)", "TLE_LINE1": "1 41031U 15065D   21339.74446920  .00283594  23042-6  61447-2 0  9992", "TLE_LINE2": "2 41031   4.2372 270.7858 6065739  18.9934 356.2018  4.02873044 69187"}, {"CCSDS_OMM_VERS": "2.0", "COMMENT": "GENERATED VIA SPACE-TRACK.ORG API", "CREATION_DATE": "2021-12-05T20:11:25", "ORIGINATOR": "18 SPCS", "OBJECT_NAME": "H-2A R/B", "OBJECT_ID": "2016-012E", "CENTER_NAME": "EARTH", "REF_FRAME": "TEME", "TIME_SYSTEM": "UTC", "MEAN_ELEMENT_THEORY": "SGP4", "EPOCH": "2021-12-05T12:34:51.539232", "MEAN_MOTION": "15.05768842", "ECCENTRICITY": "0.00176420", "INCLINATION": "30.6268", "RA_OF_ASC_NODE": "27.3195", "ARG_OF_PERICENTER": "48.7971", "MEAN_ANOMALY": "311.4178", "EPHEMERIS_TYPE": "0", "CLASSIFICATION_TYPE": "U", "NORAD_CAT_ID": "41341", "ELEMENT_SET_NO": "999", "REV_AT_EPOCH": "31927", "BSTAR": "0.00007103600000", "MEAN_MOTION_DOT": "0.00001161", "MEAN_MOTION_DDOT": "0.0000000000000", "SEMIMAJOR_AXIS": "6927.284", "PERIOD": "95.632", "APOAPSIS": "561.370", "PERIAPSIS": "536.928", "OBJECT_TYPE": "ROCKET BODY", "RCS_SIZE": "LARGE", "COUNTRY_CODE": "JPN", "LAUNCH_DATE": "2016-02-17", "SITE": "TNSTA", "DECAY_DATE": null, "FILE": "3233179", "GP_ID": "191135257", "TLE_LINE0": "0 H-2A R/B", "TLE_LINE1": "1 41341U 16012E   21339.52420763  .00001161  00000-0  71036-4 0  9990", "TLE_LINE2": "2 41341  30.6268  27.3195 0017642  48.7971 311.4178 15.05768842319276"}]